{"type": "FeatureCollection", "features": [ {"type": "Feature", "properties": {"norad_id": 28659, "name": "DIRECTV 8", "group": "intelsat", "lat": 0.01885457351449542, "lon": 124.66265142768133, "alt_km": 35796.08620880611, "timestamp": "2025-12-11T10:53:15.553044+00:00", "meta": {"OBJECT_NAME": "DIRECTV 8", "OBJECT_ID": "2005-019A", "EPOCH": "2025-12-11T00:57:40.452192", "MEAN_MOTION": 1.00272438, "ECCENTRICITY": 0.0003121, "INCLINATION": 0.012, "RA_OF_ASC_NODE": 43.9684, "ARG_OF_PERICENTER": 221.3481, "MEAN_ANOMALY": 70.068, "EPHEMERIS_TYPE": 0, "CLASSIFICATION_TYPE": "U", "NORAD_CAT_ID": 28659, "ELEMENT_SET_NO": 999, "REV_AT_EPOCH": 7518, "BSTAR": 0, "MEAN_MOTION_DOT": 6e-08, "MEAN_MOTION_DDOT": 0}, "tle": {"line1": "1 28659U 05019A   25345.04005153  .00000006  00000+0  00000+0 0  9996", "line2": "2 28659   0.0120  43.9684 0003121 221.3481  70.0680  1.00272438 75186"}}, "geometry": {"type": "Point", "coordinates": [124.66265142768133, 0.01885457351449542]}}, {"type": "Feature", "properties": {"norad_id": 28702, "name": "GALAXY 28 (G-28)", "group": "intelsat", "lat": 2.7054587642931014, "lon": 154.990319540022, "alt_km": 35789.74032883228, "timestamp": "2025-12-11T10:53:15.553056+00:00", "meta": {"OBJECT_NAME": "GALAXY 28 (G-28)", "OBJECT_ID": "2005-022A", "EPOCH": "2025-12-11T04:52:38.652960", "MEAN_MOTION": 1.00270733, "ECCENTRICITY": 0.0002716, "INCLINATION": 2.8148, "RA_OF_ASC_NODE": 81.2995, "ARG_OF_PERICENTER": 182.5228, "MEAN_ANOMALY": 160.8173, "EPHEMERIS_TYPE": 0, "CLASSIFICATION_TYPE": "U", "NORAD_CAT_ID": 28702, "ELEMENT_SET_NO": 999, "REV_AT_EPOCH": 5008, "BSTAR": 0, "MEAN_MOTION_DOT": -1.81e-06, "MEAN_MOTION_DDOT": 0}, "tle": {"line1": "1 28702U 05022A   25345.20322515 -.00000181  00000+0  00000+0 0  9996", "line2": "2 28702   2.8148  81.2995 0002716 182.5228 160.8173  1.00270733 50084"}}, "geometry": {"type": "Point", "coordinates": [154.990319540022, 2.7054587642931014]}}, {"type": "Feature", "properties": {"norad_id": 29236, "name": "GALAXY 16 (G-16)", "group": "intelsat", "lat": 0.0183516715717784, "lon": 144.68863730435373, "alt_km": 35790.278850681614, "timestamp": "2025-12-11T10:53:15.553068+00:00", "meta": {"OBJECT_NAME": "GALAXY 16 (G-16)", "OBJECT_ID": "2006-023A", "EPOCH": "2025-12-11T05:00:38.584224", "MEAN_MOTION": 1.00272313, "ECCENTRICITY": 0.0002693, "INCLINATION": 0.0366, "RA_OF_ASC_NODE": 150.4834, "ARG_OF_PERICENTER": 106.5735, "MEAN_ANOMALY": 159.2686, "EPHEMERIS_TYPE": 0, "CLASSIFICATION_TYPE": "U", "NORAD_CAT_ID": 29236, "ELEMENT_SET_NO": 999, "REV_AT_EPOCH": 7108, "BSTAR": 0, "MEAN_MOTION_DOT": -1.21e-06, "MEAN_MOTION_DDOT": 0}, "tle": {"line1": "1 29236U 06023A   25345.20877991 -.00000121  00000+0  00000+0 0  9998", "line2": "2 29236   0.0366 150.4834 0002693 106.5735 159.2686  1.00272313 71083"}}, "geometry": {"type": "Point", "coordinates": [144.68863730435373, 0.0183516715717784]}}, {"type": "Feature", "properties": {"norad_id": 29494, "name": "DIRECTV 9S", "group": "intelsat", "lat": 1.6712876660933849, "lon": 142.46950626331434, "alt_km": 35792.42825916254, "timestamp": "2025-12-11T10:53:15.553095+00:00", "meta": {"OBJECT_NAME": "DIRECTV 9S", "OBJECT_ID": "2006-043A", "EPOCH": "2025-12-11T05:00:38.584224", "MEAN_MOTION": 1.00271766, "ECCENTRICITY": 0.0003074, "INCLINATION": 1.9365, "RA_OF_ASC_NODE": 83.2249, "ARG_OF_PERICENTER": 179.5337, "MEAN_ANOMALY": 151.3624, "EPHEMERIS_TYPE": 0, "CLASSIFICATION_TYPE": "U", "NORAD_CAT_ID": 29494, "ELEMENT_SET_NO": 999, "REV_AT_EPOCH": 4949, "BSTAR": 0, "MEAN_MOTION_DOT": -1.07e-06, "MEAN_MOTION_DDOT": 0}, "tle": {"line1": "1 29494U 06043A   25345.20877991 -.00000107  00000+0  00000+0 0  9990", "line2": "2 29494   1.9365  83.2249 0003074 179.5337 151.3624  1.00271766 49499"}}, "geometry": {"type": "Point", "coordinates": [142.46950626331434, 1.6712876660933849]}}, {"type": "Feature", "properties": {"norad_id": 31307, "name": "GALAXY 17 (G-17)", "group": "intelsat", "lat": 2.4285015910733248, "lon": 158.66130780847277, "alt_km": 35784.371237391606, "timestamp": "2025-12-11T10:53:15.553110+00:00", "meta": {"OBJECT_NAME": "GALAXY 17 (G-17)", "OBJECT_ID": "2007-016B", "EPOCH": "2025-12-11T04:52:38.652960", "MEAN_MOTION": 1.00272515, "ECCENTRICITY": 0.0005935, "INCLINATION": 2.4965, "RA_OF_ASC_NODE": 82.3008, "ARG_OF_PERICENTER": 163.5412, "MEAN_ANOMALY": 182.4997, "EPHEMERIS_TYPE": 0, "CLASSIFICATION_TYPE": "U", "NORAD_CAT_ID": 31307, "ELEMENT_SET_NO": 999, "REV_AT_EPOCH": 6791, "BSTAR": 0, "MEAN_MOTION_DOT": -2e-06, "MEAN_MOTION_DDOT": 0}, "tle": {"line1": "1 31307U 07016B   25345.20322515 -.00000200  00000+0  00000+0 0  9998", "line2": "2 31307   2.4965  82.3008 0005935 163.5412 182.4997  1.00272515 67913"}}, "geometry": {"type": "Point", "coordinates": [158.66130780847277, 2.4285015910733248]}}, {"type": "Feature", "properties": {"norad_id": 31862, "name": "DIRECTV 10", "group": "intelsat", "lat": 0.00019842564619815254, "lon": 140.93779566659626, "alt_km": 35785.72588880784, "timestamp": "2025-12-11T10:53:15.553122+00:00", "meta": {"OBJECT_NAME": "DIRECTV 10", "OBJECT_ID": "2007-032A", "EPOCH": "2025-12-10T23:19:34.847040", "MEAN_MOTION": 1.00271412, "ECCENTRICITY": 3.8e-05, "INCLINATION": 0.0021, "RA_OF_ASC_NODE": 247.4466, "ARG_OF_PERICENTER": 326.2855, "MEAN_ANOMALY": 113.3201, "EPHEMERIS_TYPE": 0, "CLASSIFICATION_TYPE": "U", "NORAD_CAT_ID": 31862, "ELEMENT_SET_NO": 999, "REV_AT_EPOCH": 4370, "BSTAR": 0, "MEAN_MOTION_DOT": -9.8e-07, "MEAN_MOTION_DDOT": 0}, "tle": {"line1": "1 31862U 07032A   25344.97193110 -.00000098  00000+0  00000+0 0  9997", "line2": "2 31862   0.0021 247.4466 0000380 326.2855 113.3201  1.00271412 43703"}}, "geometry": {"type": "Point", "coordinates": [140.93779566659626, 0.00019842564619815254]}}, {"type": "Feature", "properties": {"norad_id": 32253, "name": "INTELSAT 11 (IS-11)", "group": "intelsat", "lat": 1.734687963779239, "lon": 114.9514718795079, "alt_km": 36157.69362009212, "timestamp": "2025-12-11T10:53:15.553135+00:00", "meta": {"OBJECT_NAME": "INTELSAT 11 (IS-11)", "OBJECT_ID": "2007-044B", "EPOCH": "2025-12-11T04:35:38.717376", "MEAN_MOTION": 0.99048278, "ECCENTRICITY": 0.000898, "INCLINATION": 3.0765, "RA_OF_ASC_NODE": 80.9929, "ARG_OF_PERICENTER": 165.3171, "MEAN_ANOMALY": 135.252, "EPHEMERIS_TYPE": 0, "CLASSIFICATION_TYPE": "U", "NORAD_CAT_ID": 32253, "ELEMENT_SET_NO": 999, "REV_AT_EPOCH": 6658, "BSTAR": 0, "MEAN_MOTION_DOT": 8e-07, "MEAN_MOTION_DDOT": 0}, "tle": {"line1": "1 32253U 07044B   25345.19142034  .00000080  00000+0  00000+0 0  9999", "line2": "2 32253   3.0765  80.9929 0008980 165.3171 135.2520  0.99048278 66584"}}, "geometry": {"type": "Point", "coordinates": [114.9514718795079, 1.734687963779239]}}, {"type": "Feature", "properties": {"norad_id": 32388, "name": "HORIZONS-2", "group": "intelsat", "lat": 2.113073186122049, "lon": 169.8787218900938, "alt_km": 35790.49338558456, "timestamp": "2025-12-11T10:53:15.553147+00:00", "meta": {"OBJECT_NAME": "HORIZONS-2", "OBJECT_ID": "2007-063B", "EPOCH": "2025-12-11T02:53:15.825120", "MEAN_MOTION": 1.00270185, "ECCENTRICITY": 0.0004958, "INCLINATION": 2.1176, "RA_OF_ASC_NODE": 82.9766, "ARG_OF_PERICENTER": 188.584, "MEAN_ANOMALY": 138.0519, "EPHEMERIS_TYPE": 0, "CLASSIFICATION_TYPE": "U", "NORAD_CAT_ID": 32388, "ELEMENT_SET_NO": 999, "REV_AT_EPOCH": 6592, "BSTAR": 0, "MEAN_MOTION_DOT": -2.48e-06, "MEAN_MOTION_DDOT": 0}, "tle": {"line1": "1 32388U 07063B   25345.12032205 -.00000248  00000+0  00000+0 0  9997", "line2": "2 32388   2.1176  82.9766 0004958 188.5840 138.0519  1.00270185 65924"}}, "geometry": {"type": "Point", "coordinates": [169.8787218900938, 2.113073186122049]}}, {"type": "Feature", "properties": {"norad_id": 32729, "name": "DIRECTV 11", "group": "intelsat", "lat": 0.0010625121197271258, "lon": 144.52081368699316, "alt_km": 35785.21983140309, "timestamp": "2025-12-11T10:53:15.553159+00:00", "meta": {"OBJECT_NAME": "DIRECTV 11", "OBJECT_ID": "2008-013A", "EPOCH": "2025-12-10T19:55:09.427872", "MEAN_MOTION": 1.00269537, "ECCENTRICITY": 4.84e-05, "INCLINATION": 0.0266, "RA_OF_ASC_NODE": 165.676, "ARG_OF_PERICENTER": 20.8459, "MEAN_ANOMALY": 92.8714, "EPHEMERIS_TYPE": 0, "CLASSIFICATION_TYPE": "U", "NORAD_CAT_ID": 32729, "ELEMENT_SET_NO": 999, "REV_AT_EPOCH": 4370, "BSTAR": 0, "MEAN_MOTION_DOT": -1.2e-06, "MEAN_MOTION_DDOT": 0}, "tle": {"line1": "1 32729U 08013A   25344.82997023 -.00000120  00000+0  00000+0 0  9995", "line2": "2 32729   0.0266 165.6760 0000484  20.8459  92.8714  1.00269537 43702"}}, "geometry": {"type": "Point", "coordinates": [144.52081368699316, 0.0010625121197271258]}}, {"type": "Feature", "properties": {"norad_id": 32951, "name": "GALAXY 18 (G-18)", "group": "intelsat", "lat": 0.01296656514163329, "lon": 120.70454016154962, "alt_km": 35796.2251304202, "timestamp": "2025-12-11T10:53:15.553171+00:00", "meta": {"OBJECT_NAME": "GALAXY 18 (G-18)", "OBJECT_ID": "2008-024A", "EPOCH": "2025-12-10T23:13:50.397024", "MEAN_MOTION": 1.00273115, "ECCENTRICITY": 0.0003109, "INCLINATION": 0.018, "RA_OF_ASC_NODE": 314.8239, "ARG_OF_PERICENTER": 309.1849, "MEAN_ANOMALY": 41.3852, "EPHEMERIS_TYPE": 0, "CLASSIFICATION_TYPE": "U", "NORAD_CAT_ID": 32951, "ELEMENT_SET_NO": 999, "REV_AT_EPOCH": 4396, "BSTAR": 0, "MEAN_MOTION_DOT": 3e-07, "MEAN_MOTION_DDOT": 0}, "tle": {"line1": "1 32951U 08024A   25344.96794441  .00000030  00000+0  00000+0 0  9997", "line2": "2 32951   0.0180 314.8239 0003109 309.1849  41.3852  1.00273115 43963"}}, "geometry": {"type": "Point", "coordinates": [120.70454016154962, 0.01296656514163329]}}]}